{
  "type": "FeatureCollection",
  "features": [
    {
      "type": "Feature",
      "properties": {
        "norad_id": 53093,
        "name": "COSMOS 2251 DEB",
        "group": "cosmos-2251-debris",
        "lat": -67.01804966546273,
        "lon": -90.09508135526337,
        "alt_km": 762.6043044260805,
        "timestamp": "2025-12-06T20:37:56.474456+00:00",
        "meta_object_name": "COSMOS 2251 DEB",
        "meta_object_id": "1993-036BYP",
        "meta_epoch": "2025-12-06T07:38:57.435648",
        "meta_mean_motion": 14.41821774,
        "meta_eccentricity": 0.00188422,
        "meta_inclination": 74.0367,
        "meta_ra_of_asc_node": 313.3554,
        "meta_arg_of_pericenter": 31.9926,
        "meta_mean_anomaly": 328.2369,
        "meta_ephemeris_type": 0,
        "meta_classification_type": "U",
        "meta_norad_cat_id": 53093,
        "meta_element_set_no": 999,
        "meta_rev_at_epoch": 17633,
        "meta_bstar": 0.0017318792,
        "meta_mean_motion_dot": 5.651e-05,
        "meta_mean_motion_ddot": 0,
        "tle_line1": "1 53093U 93036BYP 25340.31872032  .00005651  00000+0  17319-2 0  9990",
        "tle_line2": "2 53093  74.0367 313.3554 0018842  31.9926 328.2369 14.41821774176338"
      },
      "geometry": {
        "type": "Point",
        "coordinates": [
          -90.09508135526337,
          -67.01804966546273
        ]
      }
    }
  ]
}